OPTICUBE 04             
1 41851U 16067D   19102.22804227  .00000331  00000-0  34249-4 0  9992
2 41851  97.9133 199.0419 0007307 245.6742 114.3716 14.96785104131826
AEROCUBE 8D             
1 41852U 16067E   19102.22635319  .00000593  00000-0  57231-4 0  9993
2 41852  97.9144 198.8656 0008091 245.6481 114.3895 14.96677431131809
AEROCUBE 8C             
1 41853U 16067F   19102.18077934 -.00000143  00000-0 -71782-5 0  9993
2 41853  97.9137 198.7614 0008827 248.8705 111.1573 14.96637243131799
PROMETHEUS 2-1          
1 41854U 16067G   19102.22428924  .00000938  00000-0  87114-4 0  9993
2 41854  97.9151 198.9103 0008746 246.1715 113.8590 14.96836052131802
PROMETHEUS 2-3          
1 41855U 16067H   19102.22684268  .00000829  00000-0  77583-4 0  9997
2 41855  97.9154 198.9260 0008903 247.0025 113.0257 14.96841061131807
INS-1B                  
1 41954U 17008G   19102.18902467  .00002077  00000-0  89217-4 0  9996
2 41954  97.4057 168.1007 0009970  33.0604 327.1255 15.23767585119523
BGUSAT                  
1 41999U 17008BD  19101.87299717  .00003652  00000-0  14555-3 0  9999
2 41999  97.4119 169.8768 0009272  49.0701 311.1339 15.25816011118956
DIDO-2                  
1 42000U 17008BE  19101.71735268  .00001394  00000-0  60839-4 0  9990
2 42000  97.4075 168.1721 0009797  51.4365 308.7749 15.23766271118853
PEASSS                  
1 42015U 17008BV  19102.18269123  .00001750  00000-0  73653-4 0  9994
2 42015  97.4079 169.4848 0007757  57.0849 303.1134 15.24697542119460
AL-FARABI 1             
1 42016U 17008BW  19102.14298472  .00002381  00000-0  97427-4 0  9996
2 42016  97.4088 169.9106 0007596  57.3449 302.8521 15.25287458119607
NAYIF-1 (EO-88)         
1 42017U 17008BX  19102.13192152  .00002422  00000-0  98969-4 0  9992
2 42017  97.4086 169.9090 0007567  57.7216 302.4754 15.25318044119624
PHOENIX                 
1 42706U 98067LP  19101.68042779  .00278264  42671-4  59704-3 0  9995
2 42706  51.6219 254.1206 0007050 300.0149  60.0160 15.97996545109041
ALTAIR PATHFINDER       
1 42711U 98067LS  19102.10676334  .00047406  00000-0  29959-3 0  9996
2 42711  51.6349 279.1509 0003720 236.4256 123.6389 15.76101744108410
SHARC                   
1 42712U 98067LT  19101.69322396  .00339872  58535-4  72662-3 0  9996
2 42712  51.6256 270.9958 0007679 283.6841  76.3313 15.98014593108720
ZA-AEROSAT              
1 42713U 98067LU  19101.66600000  .00160587  20802-4  47322-3 0  9991
2 42713  51.6289 260.9363 0005234 280.6309  79.4108 15.92308191108615
CSUNSAT1                
1 42715U 98067LW  19101.68824398  .00305526  50500-4  57606-3 0  9991
2 42715  51.6243 255.7303 0007687 293.6688  66.3515 16.00246029108686
NJUST-1                 
1 42722U 98067MB  19101.71302199  .00101138  00000-0  39903-3 0  9992
2 42722  51.6362 267.1756 0003314 249.1328 214.8018 15.86024921107602
NSIGHT                  
1 42726U 98067MF  19102.05162420  .00028414  00000-0  24856-3 0  9991
2 42726  51.6370 294.0349 0004862 268.0540  91.9900 15.68663909107190
SNUSAT-1B               
1 42727U 98067MG  19089.91797841  .06519165  12339-4  59073-3 0  9997
2 42727  51.6087 308.8243 0009316 268.9251  91.0707 16.37980460105869
BEEAGLESAT              
1 42736U 98067MR  19101.64425573  .00447741  10359-3  64431-3 0  9999
2 42736  51.6232 253.8200 0009593 303.9213  56.0886 16.04714575107595
UCLSAT                  
1 42765U 17036A   19102.11174430  .00002066  00000-0  91786-4 0  9994
2 42765  97.3583 161.5449 0013308 105.9413 254.3291 15.22572081100188
LITUANICASAT-2          
1 42768U 17036D   19101.89326162  .00003401  00000-0  14920-3 0  9990
2 42768  97.3613 160.9025 0017068  98.6751 261.6420 15.22510998 99998
AALTO-1                 
1 42775U 17036L   19101.91296267  .00001234  00000-0  58204-4 0  9999
2 42775  97.3574 160.2519 0015786  97.6981 262.6048 15.21219948 99900
URSA MAIOR              
1 42776U 17036M   19101.81363382  .00001336  00000-0  62558-4 0  9992
2 42776  97.3582 160.2809 0015627  98.0302 262.2707 15.21343350 99899
COMPASS 2               
1 42777U 17036N   19101.91697509  .00002622  00000-0  11534-3 0  9991
2 42777  97.3614 161.3749 0014446  99.4762 260.8108 15.22661005 99951
DIAMOND RED             
1 42783U 17036U   19101.87043261  .00001519  00000-0  69284-4 0  9993
2 42783  97.3587 160.9643 0013948 107.3210 252.9553 15.22052569 99931
PEGASUS                 
1 42784U 17036V   19101.86215997  .00001744  00000-0  78471-4 0  9998
2 42784  97.3590 161.1433 0013821 106.9588 253.3164 15.22327553 99941
DIAMOND GREEN           
1 42785U 17036W   19101.86925736  .00001539  00000-0  70174-4 0  9992
2 42785  97.3590 160.9851 0013848 107.8391 252.4357 15.22052008100008
DIAMOND BLUE            
1 42786U 17036X   19102.13123559  .00001513  00000-0  69026-4 0  9993
2 42786  97.3589 161.2405 0013680 107.1824 253.0911 15.22052216 99960
NUDTSAT                 
1 42787U 17036Y   19101.96681863  .00001631  00000-0  71787-4 0  9999
2 42787  97.3632 161.8159 0012282  98.2283 262.0368 15.23197446 99836
SUCHAI                  
1 42788U 17036Z   19101.88706623  .00002268  00000-0  10005-3 0  9995
2 42788  97.3590 161.4218 0013451 106.5423 253.7292 15.22712577100035
SKCUBE                  
1 42789U 17036AA  19101.83295055  .00002073  00000-0  91964-4 0  9991
2 42789  97.3587 161.3247 0013310 106.7265 253.5433 15.22625036 99948
VZLUSAT-1               
1 42790U 17036AB  19101.88801419  .00002763  00000-0  11951-3 0  9998
2 42790  97.3599 161.7416 0012895 106.1465 254.1192 15.23215194 99971
ROBUSTA-1B              
1 42792U 17036AD  19102.16535833  .00001895  00000-0  83903-4 0  9998
2 42792  97.3591 161.7805 0012850 106.1944 254.0708 15.22789396100019
CICERO 6                
1 42793U 17036AE  19101.68286907  .00001359  00000-0  61663-4 0  9994
2 42793  97.3576 161.1472 0012046 108.6996 251.5550 15.22441373100004
D-SAT                   
1 42794U 17036AF  19102.09638963  .00000319  00000-0  33144-4 0  9992
2 42794  97.5482 149.7405 0126785   7.6890 352.6233 14.91057106 98265
TOKI                    
1 42820U 98067MU  19101.71104011  .00327883  57088-4  59200-3 0  9995
2 42820  51.6246 258.8502 0007392 292.1665  67.8561 16.00987449100994
MAZAALAI (NUMSAT-1)     
1 42822U 98067MW  19101.70798492  .00247937  35880-4  55310-3 0  9993
2 42822  51.6269 261.1560 0006680 289.0979  70.9307 15.97328427100942
BRAC ONNESHA            
1 42823U 98067MX  19101.69241218  .00291590  46412-4  58332-3 0  9995
2 42823  51.6241 260.2598 0007779 287.4221  72.5938 15.99218247100955
NIGERIAEDUSAT-1         
1 42824U 98067MY  19101.76496534  .00232632  32698-4  53875-3 0  9997
2 42824  51.6273 261.6056 0007253 283.9658  76.0544 15.96659022100934
CORVUS BC2              
1 42846U 17042X   19101.67257746  .00000238  00000-0  28808-4 0  9997
2 42846  97.5732 358.3576 0008145 284.8916  75.1401 14.91944890 94877
CORVUS BC1              
1 42847U 17042Y   19101.89862595  .00000079  00000-0  13121-4 0  9991
2 42847  97.5733 358.6700 0007722 283.5745  76.4614 14.92044575 94903
SILU-1 (SILKROAD 1)     
1 42903U 17021F   19100.23204088  .02436429  89480-5  50117-3 0  9998
2 42903  42.7609 296.2424 0011156 293.9683  66.9737 16.29954320 97039
MIRATA                  
1 43015U 17073C   19101.75556775  .00002826  00000-0  22472-3 0  9998
2 43015  97.7186  25.6178 0256621  19.4836 341.5968 14.78829526 75252
MAKERSAT 0              
1 43016U 17073D   19101.75924063  .00001851  00000-0  14874-3 0  9992
2 43016  97.7222  25.8142 0258597  19.7229 341.3762 14.78626971 75259
ASTERIA                 
1 43020U 98067NH  19101.97661183  .00030414  00000-0  27451-3 0  9996
2 43020  51.6421 304.9408 0002300 219.4614 140.6215 15.67866313 79225
DELLINGR (RBLE)         
1 43021U 98067NJ  19102.11150568  .00012725  00000-0  14881-3 0  9992
2 43021  51.6388 313.2508 0002670 193.3050 166.7874 15.61971388 79128
AEROCUBE 7B (OCSD B)    
1 43042U 17071F   19102.18890799  .00005784  00000-0  14897-3 0  9999
2 43042  51.6391  22.8378 0003776 269.4684  90.5869 15.40717366 75674
AEROCUBE 7C (OCSD C)    
1 43043U 17071G   19101.86467325  .00005674  00000-0  14616-3 0  9996
2 43043  51.6392  24.4358 0004116 272.5675  87.4839 15.40753003 75597
CHEFSAT                 
1 43044U 17071H   19101.31668619  .00011050  00000-0  25516-3 0  9992
2 43044  51.6399  23.1196 0003827 268.6101  91.4447 15.43040019 75565
ASGARDIA 1              
1 43049U 17071N   19101.95194486  .00004710  00000-0  12249-3 0  9997
2 43049  51.6400  23.5410 0001729 302.5886  57.4932 15.40879476 75614
ISARA                   
1 43050U 17071P   19102.02357533  .00008699  00000-0  20585-3 0  9994
2 43050  51.6391  20.3069 0001456 298.0548  62.0291 15.42606455 75652
PROPCUBE 2 (FAUNA)      
1 43052U 17071R   19101.90439624  .00005812  00000-0  14765-3 0  9991
2 43052  51.6399  23.2402 0001614 296.5894  63.4926 15.41127857 75606
CORVUS BC3              
1 43118U 18004H   19101.85765717  .00001226  00000-0  55552-4 0  9995
2 43118  97.4926 169.4203 0011869 124.9744 235.2608 15.22727389 69150
MICROMAS-2A             
1 43131U 18004W   19102.18023934  .00003092  00000-0  13105-3 0  9995
2 43131  97.4942 170.2839 0010979 125.8985 234.3272 15.23858571 69231
CICERO 7                
1 43143U 18004AJ  19102.21050254  .00002458  00000-0  10430-3 0  9990
2 43143  97.4931 170.5237 0008951 132.5292 227.6702 15.24038622 69253
GOMX-4B                 
1 43196U 18015E   19101.94006025  .00000661  00000-0  30244-4 0  9996
2 43196  97.3812 230.4883 0018705 181.0200 179.1002 15.23869170 66022
GOMX-4A                 
1 43197U 18015F   19102.06719277  .00000701  00000-0  31785-4 0  9997
2 43197  97.3802 230.6322 0019271 180.5573 234.6464 15.23959785 66052
1KUNS-PF                
1 43466U 98067NP  19101.97238092  .00026380  00000-0  28204-3 0  9993
2 43466  51.6383 317.5580 0001259 178.2387 181.8612 15.63697126 52317
